[
  {
    "OBJECT_NAME": "STARLINK-33616",
    "OBJECT_ID": "25063Y",
    "EPOCH": "2025-11-11T05:39:10.207584",
    "MEAN_MOTION": 15.30220027,
    "ECCENTRICITY": 0.0001431,
    "INCLINATION": 53.1598,
    "RA_OF_ASC_NODE": 253.3228,
    "ARG_OF_PERICENTER": 74.3255,
    "MEAN_ANOMALY": 285.7903,
    "EPHEMERIS_TYPE": 0,
    "CLASSIFICATION_TYPE": "U",
    "NORAD_CAT_ID": 63385,
    "ELEMENT_SET_NO": 999,
    "REV_AT_EPOCH": 3642,
    "BSTAR": 0.0012848000000000002,
    "MEAN_MOTION_DOT": 0.00037909,
    "MEAN_MOTION_DDOT": 0.0,
    "TLE_LINE1": "1 63385U 25063Y   25315.23553481  .00037909  00000+0  12848-2 0  9990",
    "TLE_LINE2": "2 63385  53.1598 253.3228 0001431  74.3255 285.7903 15.30220027 36429",
    "COMMENT": "Grouped by shell and plane from TLE"
  },
  {
    "OBJECT_NAME": "STARLINK-33571",
    "OBJECT_ID": "25063Z",
    "EPOCH": "2025-11-11T05:17:53.620800",
    "MEAN_MOTION": 15.30209844,
    "ECCENTRICITY": 0.0001343,
    "INCLINATION": 53.1609,
    "RA_OF_ASC_NODE": 253.2054,
    "ARG_OF_PERICENTER": 88.9507,
    "MEAN_ANOMALY": 271.1648,
    "EPHEMERIS_TYPE": 0,
    "CLASSIFICATION_TYPE": "U",
    "NORAD_CAT_ID": 63386,
    "ELEMENT_SET_NO": 999,
    "REV_AT_EPOCH": 3642,
    "BSTAR": 0.0020380000000000003,
    "MEAN_MOTION_DOT": 0.00060513,
    "MEAN_MOTION_DDOT": 0.0,
    "TLE_LINE1": "1 63386U 25063Z   25315.22075950  .00060513  00000+0  20380-2 0  9997",
    "TLE_LINE2": "2 63386  53.1609 253.2054 0001343  88.9507 271.1648 15.30209844 36421",
    "COMMENT": "Grouped by shell and plane from TLE"
  },
  {
    "OBJECT_NAME": "STARLINK-34203",
    "OBJECT_ID": "25119P",
    "EPOCH": "2025-11-11T05:32:21.124320",
    "MEAN_MOTION": 15.27652476,
    "ECCENTRICITY": 0.000246,
    "INCLINATION": 43.0044,
    "RA_OF_ASC_NODE": 255.9554,
    "ARG_OF_PERICENTER": 251.3402,
    "MEAN_ANOMALY": 108.7182,
    "EPHEMERIS_TYPE": 0,
    "CLASSIFICATION_TYPE": "U",
    "NORAD_CAT_ID": 64246,
    "ELEMENT_SET_NO": 999,
    "REV_AT_EPOCH": 2606,
    "BSTAR": 0.0021811,
    "MEAN_MOTION_DOT": 0.00060385,
    "MEAN_MOTION_DDOT": 0.0,
    "TLE_LINE1": "1 64246U 25119P   25315.23080005  .00060385  00000+0  21811-2 0  9990",
    "TLE_LINE2": "2 64246  43.0044 255.9554 0002460 251.3402 108.7182 15.27652476 26069",
    "COMMENT": "Grouped by shell and plane from TLE"
  },
  {
    "OBJECT_NAME": "STARLINK-33865",
    "OBJECT_ID": "25119Q",
    "EPOCH": "2025-11-11T05:10:08.949504",
    "MEAN_MOTION": 15.27645911,
    "ECCENTRICITY": 0.0001628,
    "INCLINATION": 43.0014,
    "RA_OF_ASC_NODE": 255.8349,
    "ARG_OF_PERICENTER": 256.1289,
    "MEAN_ANOMALY": 103.9382,
    "EPHEMERIS_TYPE": 0,
    "CLASSIFICATION_TYPE": "U",
    "NORAD_CAT_ID": 64247,
    "ELEMENT_SET_NO": 999,
    "REV_AT_EPOCH": 2602,
    "BSTAR": 0.0022046,
    "MEAN_MOTION_DOT": 0.0006103,
    "MEAN_MOTION_DDOT": 0.0,
    "TLE_LINE1": "1 64247U 25119Q   25315.21538136  .00061030  00000+0  22046-2 0  9991",
    "TLE_LINE2": "2 64247  43.0014 255.8349 0001628 256.1289 103.9382 15.27645911 26020",
    "COMMENT": "Grouped by shell and plane from TLE"
  },
  {
    "OBJECT_NAME": "STARLINK-34234",
    "OBJECT_ID": "25119R",
    "EPOCH": "2025-11-11T05:47:09.597120",
    "MEAN_MOTION": 15.27639343,
    "ECCENTRICITY": 0.0001522,
    "INCLINATION": 43.0031,
    "RA_OF_ASC_NODE": 256.028,
    "ARG_OF_PERICENTER": 272.5069,
    "MEAN_ANOMALY": 87.5608,
    "EPHEMERIS_TYPE": 0,
    "CLASSIFICATION_TYPE": "U",
    "NORAD_CAT_ID": 64248,
    "ELEMENT_SET_NO": 999,
    "REV_AT_EPOCH": 2605,
    "BSTAR": 0.0015945999999999998,
    "MEAN_MOTION_DOT": 0.00043959,
    "MEAN_MOTION_DDOT": 0.0,
    "TLE_LINE1": "1 64248U 25119R   25315.24108330  .00043959  00000+0  15946-2 0  9995",
    "TLE_LINE2": "2 64248  43.0031 256.0280 0001522 272.5069  87.5608 15.27639343 26051",
    "COMMENT": "Grouped by shell and plane from TLE"
  },
  {
    "OBJECT_NAME": "STARLINK-34256",
    "OBJECT_ID": "25119S",
    "EPOCH": "2025-11-11T05:21:15.373440",
    "MEAN_MOTION": 15.27634977,
    "ECCENTRICITY": 9.7e-05,
    "INCLINATION": 43.0023,
    "RA_OF_ASC_NODE": 255.8925,
    "ARG_OF_PERICENTER": 271.3849,
    "MEAN_ANOMALY": 88.6892,
    "EPHEMERIS_TYPE": 0,
    "CLASSIFICATION_TYPE": "U",
    "NORAD_CAT_ID": 64249,
    "ELEMENT_SET_NO": 999,
    "REV_AT_EPOCH": 2605,
    "BSTAR": 0.0014360999999999998,
    "MEAN_MOTION_DOT": 0.00039534,
    "MEAN_MOTION_DDOT": 0.0,
    "TLE_LINE1": "1 64249U 25119S   25315.22309460  .00039534  00000+0  14361-2 0  9995",
    "TLE_LINE2": "2 64249  43.0023 255.8925 0000970 271.3849  88.6892 15.27634977 26050",
    "COMMENT": "Grouped by shell and plane from TLE"
  },
  {
    "OBJECT_NAME": "STARLINK-34229",
    "OBJECT_ID": "25119T",
    "EPOCH": "2025-11-11T04:38:54.816000",
    "MEAN_MOTION": 15.27639479,
    "ECCENTRICITY": 0.0001517,
    "INCLINATION": 43.0007,
    "RA_OF_ASC_NODE": 256.5374,
    "ARG_OF_PERICENTER": 260.7942,
    "MEAN_ANOMALY": 99.2738,
    "EPHEMERIS_TYPE": 0,
    "CLASSIFICATION_TYPE": "U",
    "NORAD_CAT_ID": 64250,
    "ELEMENT_SET_NO": 999,
    "REV_AT_EPOCH": 2604,
    "BSTAR": 0.0022923,
    "MEAN_MOTION_DOT": 0.00063476,
    "MEAN_MOTION_DDOT": 0.0,
    "TLE_LINE1": "1 64250U 25119T   25315.19369000  .00063476  00000+0  22923-2 0  9994",
    "TLE_LINE2": "2 64250  43.0007 256.5374 0001517 260.7942  99.2738 15.27639479 26042",
    "COMMENT": "Grouped by shell and plane from TLE"
  },
  {
    "OBJECT_NAME": "STARLINK-34224",
    "OBJECT_ID": "25119U",
    "EPOCH": "2025-11-11T05:15:42.145056",
    "MEAN_MOTION": 15.27645714,
    "ECCENTRICITY": 0.0001524,
    "INCLINATION": 43.0023,
    "RA_OF_ASC_NODE": 255.8672,
    "ARG_OF_PERICENTER": 251.7283,
    "MEAN_ANOMALY": 108.3403,
    "EPHEMERIS_TYPE": 0,
    "CLASSIFICATION_TYPE": "U",
    "NORAD_CAT_ID": 64251,
    "ELEMENT_SET_NO": 999,
    "REV_AT_EPOCH": 2605,
    "BSTAR": 0.0020304,
    "MEAN_MOTION_DOT": 0.00056149,
    "MEAN_MOTION_DDOT": 0.0,
    "TLE_LINE1": "1 64251U 25119U   25315.21923779  .00056149  00000+0  20304-2 0  9997",
    "TLE_LINE2": "2 64251  43.0023 255.8672 0001524 251.7283 108.3403 15.27645714 26051",
    "COMMENT": "Grouped by shell and plane from TLE"
  },
  {
    "OBJECT_NAME": "STARLINK-34215",
    "OBJECT_ID": "25119V",
    "EPOCH": "2025-11-11T04:07:27.414048",
    "MEAN_MOTION": 15.27628098,
    "ECCENTRICITY": 0.000113,
    "INCLINATION": 43.0032,
    "RA_OF_ASC_NODE": 256.3697,
    "ARG_OF_PERICENTER": 253.1402,
    "MEAN_ANOMALY": 106.9326,
    "EPHEMERIS_TYPE": 0,
    "CLASSIFICATION_TYPE": "U",
    "NORAD_CAT_ID": 64252,
    "ELEMENT_SET_NO": 999,
    "REV_AT_EPOCH": 2604,
    "BSTAR": 0.0013203000000000002,
    "MEAN_MOTION_DOT": 0.00036302,
    "MEAN_MOTION_DDOT": 0.0,
    "TLE_LINE1": "1 64252U 25119V   25315.17184507  .00036302  00000+0  13203-2 0  9990",
    "TLE_LINE2": "2 64252  43.0032 256.3697 0001130 253.1402 106.9326 15.27628098 26040",
    "COMMENT": "Grouped by shell and plane from TLE"
  },
  {
    "OBJECT_NAME": "STARLINK-33893",
    "OBJECT_ID": "25119W",
    "EPOCH": "2025-11-11T06:03:49.007520",
    "MEAN_MOTION": 15.27630999,
    "ECCENTRICITY": 8.82e-05,
    "INCLINATION": 43.0014,
    "RA_OF_ASC_NODE": 256.1181,
    "ARG_OF_PERICENTER": 268.6515,
    "MEAN_ANOMALY": 91.4235,
    "EPHEMERIS_TYPE": 0,
    "CLASSIFICATION_TYPE": "U",
    "NORAD_CAT_ID": 64253,
    "ELEMENT_SET_NO": 999,
    "REV_AT_EPOCH": 2605,
    "BSTAR": 0.0011529,
    "MEAN_MOTION_DOT": 0.00031649,
    "MEAN_MOTION_DDOT": 0.0,
    "TLE_LINE1": "1 64253U 25119W   25315.25265055  .00031649  00000+0  11529-2 0  9996",
    "TLE_LINE2": "2 64253  43.0014 256.1181 0000882 268.6515  91.4235 15.27630999 26057",
    "COMMENT": "Grouped by shell and plane from TLE"
  },
  {
    "OBJECT_NAME": "STARLINK-34183",
    "OBJECT_ID": "25119X",
    "EPOCH": "2025-11-11T04:44:27.359232",
    "MEAN_MOTION": 15.27617801,
    "ECCENTRICITY": 0.0001452,
    "INCLINATION": 43.0046,
    "RA_OF_ASC_NODE": 256.5622,
    "ARG_OF_PERICENTER": 271.281,
    "MEAN_ANOMALY": 88.7876,
    "EPHEMERIS_TYPE": 0,
    "CLASSIFICATION_TYPE": "U",
    "NORAD_CAT_ID": 64254,
    "ELEMENT_SET_NO": 999,
    "REV_AT_EPOCH": 2604,
    "BSTAR": 0.0013059999999999999,
    "MEAN_MOTION_DOT": 0.00035893,
    "MEAN_MOTION_DDOT": 0.0,
    "TLE_LINE1": "1 64254U 25119X   25315.19753888  .00035893  00000+0  13060-2 0  9993",
    "TLE_LINE2": "2 64254  43.0046 256.5622 0001452 271.2810  88.7876 15.27617801 26045",
    "COMMENT": "Grouped by shell and plane from TLE"
  },
  {
    "OBJECT_NAME": "STARLINK-34211",
    "OBJECT_ID": "25119Y",
    "EPOCH": "2025-11-11T04:49:59.548224",
    "MEAN_MOTION": 15.2766009,
    "ECCENTRICITY": 0.000223,
    "INCLINATION": 43.0007,
    "RA_OF_ASC_NODE": 256.5876,
    "ARG_OF_PERICENTER": 272.3372,
    "MEAN_ANOMALY": 87.7225,
    "EPHEMERIS_TYPE": 0,
    "CLASSIFICATION_TYPE": "U",
    "NORAD_CAT_ID": 64255,
    "ELEMENT_SET_NO": 999,
    "REV_AT_EPOCH": 2604,
    "BSTAR": 0.0022974000000000002,
    "MEAN_MOTION_DOT": 0.00063662,
    "MEAN_MOTION_DDOT": 0.0,
    "TLE_LINE1": "1 64255U 25119Y   25315.20138366  .00063662  00000+0  22974-2 0  9993",
    "TLE_LINE2": "2 64255  43.0007 256.5876 0002230 272.3372  87.7225 15.27660090 26049",
    "COMMENT": "Grouped by shell and plane from TLE"
  }
]